[
    {
       "CCSDS_OMM_VERS":"2.0",
       "COMMENT":"GENERATED VIA SPACE-TRACK.ORG API",
       "CREATION_DATE":"2022-10-24T02:57:07",
       "ORIGINATOR":"18 SPCS",
       "OBJECT_NAME":"PROGRESS MS-19",
       "OBJECT_ID":"2022-014A",
       "CENTER_NAME":"EARTH",
       "REF_FRAME":"TEME",
       "TIME_SYSTEM":"UTC",
       "MEAN_ELEMENT_THEORY":"SGP4",
       "EPOCH":"2022-10-23T14:44:19.168800",
       "MEAN_MOTION":"15.49658807",
       "ECCENTRICITY":"0.00052490",
       "INCLINATION":"51.6435",
       "RA_OF_ASC_NODE":"60.3357",
       "ARG_OF_PERICENTER":"7.9656",
       "MEAN_ANOMALY":"359.4428",
       "EPHEMERIS_TYPE":"0",
       "CLASSIFICATION_TYPE":"U",
       "NORAD_CAT_ID":"51660",
       "ELEMENT_SET_NO":"999",
       "REV_AT_EPOCH":"36510",
       "BSTAR":"0.00017934000000",
       "MEAN_MOTION_DOT":"0.00009673",
       "MEAN_MOTION_DDOT":"0.0000000000000",
       "SEMIMAJOR_AXIS":"6795.860",
       "PERIOD":"92.924",
       "APOAPSIS":"421.293",
       "PERIAPSIS":"414.158",
       "OBJECT_TYPE":"PAYLOAD",
       "RCS_SIZE":"LARGE",
       "COUNTRY_CODE":"CIS",
       "LAUNCH_DATE":"2022-02-15",
       "SITE":"TTMTR",
       "DECAY_DATE":"2022-10-24",
       "FILE":"3630604",
       "GP_ID":"215995852",
       "TLE_LINE0":"0 PROGRESS MS-19",
       "TLE_LINE1":"1 51660U 22014A   22296.61411075  .00009673  00000-0  17934-3 0  9995",
       "TLE_LINE2":"2 51660  51.6435  60.3357 0005249   7.9656 359.4428 15.49658807365104"
    },
    {
       "CCSDS_OMM_VERS":"2.0",
       "COMMENT":"GENERATED VIA SPACE-TRACK.ORG API",
       "CREATION_DATE":"2022-02-17T17:26:11",
       "ORIGINATOR":"18 SPCS",
       "OBJECT_NAME":"SL-4 R\/B",
       "OBJECT_ID":"2022-014B",
       "CENTER_NAME":"EARTH",
       "REF_FRAME":"TEME",
       "TIME_SYSTEM":"UTC",
       "MEAN_ELEMENT_THEORY":"SGP4",
       "EPOCH":"2022-02-17T16:26:26.197152",
       "MEAN_MOTION":"16.54398252",
       "ECCENTRICITY":"0.00052790",
       "INCLINATION":"51.6559",
       "RA_OF_ASC_NODE":"207.5721",
       "ARG_OF_PERICENTER":"126.7735",
       "MEAN_ANOMALY":"233.8133",
       "EPHEMERIS_TYPE":"0",
       "CLASSIFICATION_TYPE":"U",
       "NORAD_CAT_ID":"51661",
       "ELEMENT_SET_NO":"999",
       "REV_AT_EPOCH":"41",
       "BSTAR":"0.00017855000000",
       "MEAN_MOTION_DOT":"0.31938874",
       "MEAN_MOTION_DDOT":"0.0000127530000",
       "SEMIMAJOR_AXIS":"6505.916",
       "PERIOD":"87.041",
       "APOAPSIS":"131.216",
       "PERIAPSIS":"124.347",
       "OBJECT_TYPE":"ROCKET BODY",
       "RCS_SIZE":"LARGE",
       "COUNTRY_CODE":"CIS",
       "LAUNCH_DATE":"2022-02-15",
       "SITE":"TTMTR",
       "DECAY_DATE":"2022-02-17",
       "FILE":"3304731",
       "GP_ID":"196185159",
       "TLE_LINE0":"0 SL-4 R\/B",
       "TLE_LINE1":"1 51661U 22014B   22048.68502543  .31938874  12753-4  17855-3 0  9991",
       "TLE_LINE2":"2 51661  51.6559 207.5721 0005279 126.7735 233.8133 16.54398252   413"
    },
    {
       "CCSDS_OMM_VERS":"2.0",
       "COMMENT":"GENERATED VIA SPACE-TRACK.ORG API",
       "CREATION_DATE":"2022-06-29T06:36:11",
       "ORIGINATOR":"18 SPCS",
       "OBJECT_NAME":"CYGNUS NG-17",
       "OBJECT_ID":"2022-015A",
       "CENTER_NAME":"EARTH",
       "REF_FRAME":"TEME",
       "TIME_SYSTEM":"UTC",
       "MEAN_ELEMENT_THEORY":"SGP4",
       "EPOCH":"2022-06-29T06:05:47.887872",
       "MEAN_MOTION":"15.97692768",
       "ECCENTRICITY":"0.01739660",
       "INCLINATION":"51.6422",
       "RA_OF_ASC_NODE":"276.7612",
       "ARG_OF_PERICENTER":"306.4543",
       "MEAN_ANOMALY":"159.5454",
       "EPHEMERIS_TYPE":"0",
       "CLASSIFICATION_TYPE":"U",
       "NORAD_CAT_ID":"51712",
       "ELEMENT_SET_NO":"999",
       "REV_AT_EPOCH":"2008",
       "BSTAR":"0.00014994000000",
       "MEAN_MOTION_DOT":"0.00421895",
       "MEAN_MOTION_DDOT":"0.0000111900000",
       "SEMIMAJOR_AXIS":"6658.959",
       "PERIOD":"90.130",
       "APOAPSIS":"396.667",
       "PERIAPSIS":"164.981",
       "OBJECT_TYPE":"PAYLOAD",
       "RCS_SIZE":"LARGE",
       "COUNTRY_CODE":"US",
       "LAUNCH_DATE":"2022-02-19",
       "SITE":"WLPIS",
       "DECAY_DATE":"2022-06-29",
       "FILE":"3505210",
       "GP_ID":"207063913",
       "TLE_LINE0":"0 CYGNUS NG-17",
       "TLE_LINE1":"1 51712U 22015A   22180.25402648  .00421895  11190-4  14994-3 0  9995",
       "TLE_LINE2":"2 51712  51.6422 276.7612 0173966 306.4543 159.5454 15.97692768 20089"
    },
    {
       "CCSDS_OMM_VERS":"2.0",
       "COMMENT":"GENERATED VIA SPACE-TRACK.ORG API",
       "CREATION_DATE":"2022-03-15T12:56:14",
       "ORIGINATOR":"18 SPCS",
       "OBJECT_NAME":"ELECTRON R\/B",
       "OBJECT_ID":"2022-020C",
       "CENTER_NAME":"EARTH",
       "REF_FRAME":"TEME",
       "TIME_SYSTEM":"UTC",
       "MEAN_ELEMENT_THEORY":"SGP4",
       "EPOCH":"2022-03-15T10:34:31.916352",
       "MEAN_MOTION":"16.40397972",
       "ECCENTRICITY":"0.00421600",
       "INCLINATION":"97.6994",
       "RA_OF_ASC_NODE":"129.9140",
       "ARG_OF_PERICENTER":"179.4239",
       "MEAN_ANOMALY":"180.8559",
       "EPHEMERIS_TYPE":"0",
       "CLASSIFICATION_TYPE":"U",
       "NORAD_CAT_ID":"51849",
       "ELEMENT_SET_NO":"999",
       "REV_AT_EPOCH":"229",
       "BSTAR":"0.00058462000000",
       "MEAN_MOTION_DOT":"0.22989607",
       "MEAN_MOTION_DDOT":"0.0000020992000",
       "SEMIMAJOR_AXIS":"6542.881",
       "PERIOD":"87.784",
       "APOAPSIS":"192.331",
       "PERIAPSIS":"137.161",
       "OBJECT_TYPE":"ROCKET BODY",
       "RCS_SIZE":"LARGE",
       "COUNTRY_CODE":"US",
       "LAUNCH_DATE":"2022-02-28",
       "SITE":"RLLC",
       "DECAY_DATE":"2022-03-15",
       "FILE":"3359900",
       "GP_ID":"198776088",
       "TLE_LINE0":"0 ELECTRON R\/B",
       "TLE_LINE1":"1 51849U 22020C   22074.44064718  .22989607  20992-5  58462-3 0  9990",
       "TLE_LINE2":"2 51849  97.6994 129.9140 0042160 179.4239 180.8559 16.40397972  2294"
    },
    {
       "CCSDS_OMM_VERS":"2.0",
       "COMMENT":"GENERATED VIA SPACE-TRACK.ORG API",
       "CREATION_DATE":"2022-04-18T03:06:10",
       "ORIGINATOR":"18 SPCS",
       "OBJECT_NAME":"STARLINK-3676",
       "OBJECT_ID":"2022-029K",
       "CENTER_NAME":"EARTH",
       "REF_FRAME":"TEME",
       "TIME_SYSTEM":"UTC",
       "MEAN_ELEMENT_THEORY":"SGP4",
       "EPOCH":"2022-04-18T00:58:22.368288",
       "MEAN_MOTION":"16.32839205",
       "ECCENTRICITY":"0.00109340",
       "INCLINATION":"53.2103",
       "RA_OF_ASC_NODE":"352.3702",
       "ARG_OF_PERICENTER":"257.9139",
       "MEAN_ANOMALY":"102.4221",
       "EPHEMERIS_TYPE":"0",
       "CLASSIFICATION_TYPE":"U",
       "NORAD_CAT_ID":"52097",
       "ELEMENT_SET_NO":"999",
       "REV_AT_EPOCH":"601",
       "BSTAR":"0.00317990000000",
       "MEAN_MOTION_DOT":"0.20071369",
       "MEAN_MOTION_DDOT":"0.0000121120000",
       "SEMIMAJOR_AXIS":"6563.058",
       "PERIOD":"88.190",
       "APOAPSIS":"192.099",
       "PERIAPSIS":"177.747",
       "OBJECT_TYPE":"PAYLOAD",
       "RCS_SIZE":"LARGE",
       "COUNTRY_CODE":"US",
       "LAUNCH_DATE":"2022-03-19",
       "SITE":"AFETR",
       "DECAY_DATE":"2022-04-18",
       "FILE":"3405841",
       "GP_ID":"201498981",
       "TLE_LINE0":"0 STARLINK-3676",
       "TLE_LINE1":"1 52097U 22029K   22108.04053667  .20071369  12112-4  31799-2 0  9992",
       "TLE_LINE2":"2 52097  53.2103 352.3702 0010934 257.9139 102.4221 16.32839205  6012"
    },
    {
       "CCSDS_OMM_VERS":"2.0",
       "COMMENT":"GENERATED VIA SPACE-TRACK.ORG API",
       "CREATION_DATE":"2022-04-17T19:06:10",
       "ORIGINATOR":"18 SPCS",
       "OBJECT_NAME":"STARLINK-3662",
       "OBJECT_ID":"2022-029M",
       "CENTER_NAME":"EARTH",
       "REF_FRAME":"TEME",
       "TIME_SYSTEM":"UTC",
       "MEAN_ELEMENT_THEORY":"SGP4",
       "EPOCH":"2022-04-17T17:49:15.800736",
       "MEAN_MOTION":"16.35755345",
       "ECCENTRICITY":"0.00029590",
       "INCLINATION":"53.2004",
       "RA_OF_ASC_NODE":"353.8470",
       "ARG_OF_PERICENTER":"291.4410",
       "MEAN_ANOMALY":"183.8232",
       "EPHEMERIS_TYPE":"0",
       "CLASSIFICATION_TYPE":"U",
       "NORAD_CAT_ID":"52099",
       "ELEMENT_SET_NO":"999",
       "REV_AT_EPOCH":"596",
       "BSTAR":"0.00010000000000",
       "MEAN_MOTION_DOT":"0.00835551",
       "MEAN_MOTION_DDOT":"0.0000122310000",
       "SEMIMAJOR_AXIS":"6555.255",
       "PERIOD":"88.033",
       "APOAPSIS":"179.060",
       "PERIAPSIS":"175.181",
       "OBJECT_TYPE":"PAYLOAD",
       "RCS_SIZE":"LARGE",
       "COUNTRY_CODE":"US",
       "LAUNCH_DATE":"2022-03-19",
       "SITE":"AFETR",
       "DECAY_DATE":"2022-04-17",
       "FILE":"3405599",
       "GP_ID":"201469004",
       "TLE_LINE0":"0 STARLINK-3662",
       "TLE_LINE1":"1 52099U 22029M   22107.74254399  .00835551  12231-4  10000-3 0  9999",
       "TLE_LINE2":"2 52099  53.2004 353.8470 0002959 291.4410 183.8232 16.35755345  5968"
    }
 ]